OBJECT_NAME,OBJECT_ID,EPOCH,MEAN_MOTION,ECCENTRICITY,INCLINATION,RA_OF_ASC_NODE,ARG_OF_PERICENTER,MEAN_ANOMALY,EPHEMERIS_TYPE,CLASSIFICATION_TYPE,NORAD_CAT_ID,ELEMENT_SET_NO,REV_AT_EPOCH,BSTAR,MEAN_MOTION_DOT,MEAN_MOTION_DDOT
STARLINK-37629,2026-127A,2026-07-08T07:21:51.089184,15.75287924,.00004299,53.1582,157.4534,99.2011,260.9058,0,U,69443,999,473,.12711072E-2,.199293E-2,0
STARLINK-37509,2026-127B,2026-07-08T10:18:30.726720,15.75281513,.00009609,53.1594,156.7934,71.8929,288.2195,0,U,69444,999,475,.91142191E-3,.141696E-2,0
STARLINK-37641,2026-127C,2026-07-08T11:29:48.056352,15.75335255,.0001394,53.1569,156.3838,52.4006,307.7141,0,U,69445,999,476,.63072041E-3,.97575E-3,0
STARLINK-37522,2026-127D,2026-07-08T10:18:02.278656,15.75275806,.00009621,53.1590,156.7887,113.3118,246.8003,0,U,69446,999,475,.11835925E-2,.185112E-2,0
STARLINK-37640,2026-127E,2026-07-08T09:38:49.270560,15.75413210,.00021267,53.1590,156.6122,160.2037,199.9066,0,U,69447,999,475,.14145871E-2,.223731E-2,0
STARLINK-37572,2026-127F,2026-07-08T11:36:48.215232,15.75259592,.000111,53.1589,156.4154,70.5852,289.5289,0,U,69448,999,476,.14594504E-2,.229456E-2,0
STARLINK-37643,2026-127G,2026-07-08T10:11:54.780576,15.74838699,.00018135,53.1591,156.7611,290.8453,69.2373,0,U,69449,999,475,.55011029E-2,.90823E-2,0
STARLINK-37601,2026-127H,2026-07-08T12:00:02.000160,15.75315908,.0001148,53.1582,156.3857,75.5468,352.2013,0,U,69450,999,607,-.86194509E-3,-.131177E-2,0
STARLINK-37578,2026-127J,2026-07-08T09:51:53.636544,15.75357039,.00019172,53.1561,156.6659,154.3115,205.8001,0,U,69451,999,475,.10714136E-2,.167759E-2,0
STARLINK-37577,2026-127K,2026-07-07T04:36:24.707232,15.75244638,.00015931,53.1608,162.5686,53.1091,307.0076,0,U,69452,999,456,.96440527E-3,.149876E-2,0
STARLINK-37500,2026-127L,2026-07-08T12:48:33.492672,15.75301085,.00010017,53.1559,156.0075,108.8445,251.2684,0,U,69453,999,477,.13243108E-2,.207994E-2,0
STARLINK-37575,2026-127M,2026-07-08T07:54:52.136640,15.75261282,.00012405,53.1586,156.8655,76.7616,283.3543,0,U,69454,999,474,.97853286E-3,.152234E-2,0
STARLINK-37642,2026-127N,2026-07-08T12:55:04.298016,15.75427027,.00002931,53.1559,156.0354,292.0129,68.0860,0,U,69455,999,477,.12035932E-2,.189606E-2,0
STARLINK-37513,2026-127P,2026-07-08T07:02:05.752896,15.75374721,.00016734,53.1601,156.6186,242.3954,117.6897,0,U,69456,999,474,.10896919E-2,.170823E-2,0
STARLINK-37563,2026-127Q,2026-07-08T08:01:24.320928,15.75262620,.000199,53.1591,156.8946,29.9384,330.1750,0,U,69457,999,474,.12784281E-2,.200246E-2,0
STARLINK-37565,2026-127R,2026-07-08T04:45:09.805824,15.75324176,.00017621,53.1578,157.4605,118.6891,241.4307,0,U,69458,999,472,.12749082E-2,.200228E-2,0
STARLINK-37498,2026-127S,2026-07-08T09:45:21.540384,15.75444458,.00012173,53.1561,156.6330,154.6027,205.5053,0,U,69459,999,475,.16079579E-2,.255722E-2,0
STARLINK-37384,2026-127T,2026-07-08T07:54:24.058368,15.75386538,.00021902,53.1590,156.8603,98.1066,262.0203,0,U,69460,999,474,.11195355E-2,.175718E-2,0
STARLINK-37707,2026-127U,2026-07-08T09:19:42.608640,15.75254158,.00006905,53.1586,156.5170,80.5269,279.5830,0,U,69461,999,475,.57024132E-3,.8774E-3,0
STARLINK-37525,2026-127V,2026-07-08T12:15:24.383232,15.75276475,.0001299,53.1570,155.8557,53.9439,306.1702,0,U,69462,999,477,.12296095E-2,.19251E-2,0
STARLINK-37526,2026-127W,2026-07-08T12:09:00.228096,15.76368496,.00199576,53.1551,155.8247,4.2930,355.8258,0,U,69463,999,477,-.11756214E-2,-.18865E-2,0
STARLINK-37574,2026-127X,2026-07-08T12:15:52.353504,15.75300354,.00010625,53.1571,155.8527,105.4386,254.6752,0,U,69464,999,477,.11310805E-2,.176887E-2,0
STARLINK-37535,2026-127Y,2026-07-06T23:36:10.773792,15.75260762,.00015172,53.1566,163.3879,52.9413,307.1745,0,U,69465,999,453,.92244188E-3,.143316E-2,0
STARLINK-37583,2026-127Z,2026-07-08T13:01:29.235936,15.75285523,.00011423,53.1577,155.3254,107.3323,252.7823,0,U,69466,999,478,.76476341E-3,.118485E-2,0
STARLINK-37546,2026-127AA,2026-07-08T12:02:48.438528,15.75270477,.00010491,53.1560,155.7928,65.0674,295.0456,0,U,69467,999,477,.12495499E-2,.195665E-2,0
STARLINK-37532,2026-127AB,2026-07-08T12:41:53.036448,15.75280790,.00017395,53.1594,155.2364,43.8169,316.2989,0,U,69468,999,478,.12521401E-2,.196173E-2,0
STARLINK-37708,2026-127AC,2026-07-07T20:48:42.944544,15.75225143,.0001289,53.1559,158.9398,115.3199,244.7955,0,U,69469,999,467,.1007389E-2,.156576E-2,0
STARLINK-37686,2026-127AD,2026-07-08T10:24:54.334944,15.75331975,.00012075,53.1578,156.0739,87.9287,272.1872,0,U,69470,999,476,.56355411E-4,.8041E-4,0
STARLINK-37451,2026-127AE,2026-07-08T11:57:07.943904,15.81018700,.00020992,53.1581,155.0259,44.4091,315.7099,0,U,69471,999,478,.37782781E-3,.75032E-3,0
DTC TEST OBJECT A,2026-128A,2026-07-08T10:33:00.292608,15.53455200,.0010901,55.0005,206.9448,353.6586,6.4309,0,U,69472,999,453,.10864975E-3,.6548E-4,0
