STARLINK-37629          
1 69443U 26127A   26189.30684131  .00199293  00000+0  12711-2 0  9992
2 69443  53.1582 157.4534 0000429  99.2011 260.9058 15.75287924  4732
STARLINK-37509          
1 69444U 26127B   26189.42952230  .00141696  00000+0  91142-3 0  9994
2 69444  53.1594 156.7934 0000960  71.8929 288.2195 15.75281513  4751
STARLINK-37641          
1 69445U 26127C   26189.47902843  .00097575  00000+0  63072-3 0  9992
2 69445  53.1569 156.3838 0001394  52.4006 307.7141 15.75335255  4768
STARLINK-37522          
1 69446U 26127D   26189.42919304  .00185112  00000+0  11836-2 0  9993
2 69446  53.1590 156.7887 0000962 113.3118 246.8003 15.75275806  4756
STARLINK-37640          
1 69447U 26127E   26189.40195915  .00223731  00000+0  14146-2 0  9993
2 69447  53.1590 156.6122 0002126 160.2037 199.9066 15.75413210  4753
STARLINK-37572          
1 69448U 26127F   26189.48389138  .00229456  00000+0  14595-2 0  9992
2 69448  53.1589 156.4154 0001110  70.5852 289.5289 15.75259592  4760
STARLINK-37643          
1 69449U 26127G   26189.42493959  .00908230  00000+0  55011-2 0  9996
2 69449  53.1591 156.7611 0001813 290.8453  69.2373 15.74838699  4755
STARLINK-37601          
1 69450U 26127H   26189.50002315 -.00131177  00000+0 -86195-3 0  9997
2 69450  53.1582 156.3857 0001148  75.5468 352.2013 15.75315908  6077
STARLINK-37578          
1 69451U 26127J   26189.41103746  .00167759  00000+0  10714-2 0  9994
2 69451  53.1561 156.6659 0001917 154.3115 205.8001 15.75357039  4751
STARLINK-37577          
1 69452U 26127K   26188.19195263  .00149876  00000+0  96441-3 0  9996
2 69452  53.1608 162.5686 0001593  53.1091 307.0076 15.75244638  4565
STARLINK-37500          
1 69453U 26127L   26189.53372098  .00207994  00000+0  13243-2 0  9993
2 69453  53.1559 156.0075 0001001 108.8445 251.2684 15.75301085  4774
STARLINK-37575          
1 69454U 26127M   26189.32977010  .00152234  00000+0  97853-3 0  9992
2 69454  53.1586 156.8655 0001240  76.7616 283.3543 15.75261282  4746
STARLINK-37642          
1 69455U 26127N   26189.53824419  .00189606  00000+0  12036-2 0  9992
2 69455  53.1559 156.0354 0000293 292.0129  68.0860 15.75427027  4778
STARLINK-37513          
1 69456U 26127P   26189.29312214  .00170823  00000+0  10897-2 0  9995
2 69456  53.1601 156.6186 0001673 242.3954 117.6897 15.75374721  4743
STARLINK-37563          
1 69457U 26127Q   26189.33430927  .00200246  00000+0  12784-2 0  9993
2 69457  53.1591 156.8946 0001990  29.9384 330.1750 15.75262620  4740
STARLINK-37565          
1 69458U 26127R   26189.19803016  .00200228  00000+0  12749-2 0  9992
2 69458  53.1578 157.4605 0001762 118.6891 241.4307 15.75324176  4726
STARLINK-37498          
1 69459U 26127S   26189.40649931  .00255722  00000+0  16080-2 0  9992
2 69459  53.1561 156.6330 0001217 154.6027 205.5053 15.75444458  4759
STARLINK-37384          
1 69460U 26127T   26189.32944512  .00175718  00000+0  11195-2 0  9996
2 69460  53.1590 156.8603 0002190  98.1066 262.0203 15.75386538  4742
STARLINK-37707          
1 69461U 26127U   26189.38868760  .00087740  00000+0  57024-3 0  9992
2 69461  53.1586 156.5170 0000690  80.5269 279.5830 15.75254158  4759
STARLINK-37525          
1 69462U 26127V   26189.51069888  .00192510  00000+0  12296-2 0  9995
2 69462  53.1570 155.8557 0001299  53.9439 306.1702 15.75276475  4776
STARLINK-37526          
1 69463U 26127W   26189.50625264 -.00188650  00000+0 -11756-2 0  9993
2 69463  53.1551 155.8247 0019957   4.2930 355.8258 15.76368496  4770
STARLINK-37574          
1 69464U 26127X   26189.51102261  .00176887  00000+0  11311-2 0  9996
2 69464  53.1571 155.8527 0001062 105.4386 254.6752 15.75300354  4774
STARLINK-37535          
1 69465U 26127Y   26187.98345803  .00143316  00000+0  92244-3 0  9993
2 69465  53.1566 163.3879 0001517  52.9413 307.1745 15.75260762  4533
STARLINK-37583          
1 69466U 26127Z   26189.54269949  .00118485  00000+0  76476-3 0  9992
2 69466  53.1577 155.3254 0001142 107.3323 252.7823 15.75285523  4784
STARLINK-37546          
1 69467U 26127AA  26189.50194952  .00195665  00000+0  12495-2 0  9995
2 69467  53.1560 155.7928 0001049  65.0674 295.0456 15.75270477  4777
STARLINK-37532          
1 69468U 26127AB  26189.52908607  .00196173  00000+0  12521-2 0  9993
2 69468  53.1594 155.2364 0001739  43.8169 316.2989 15.75280790  4780
STARLINK-37708          
1 69469U 26127AC  26188.86716371  .00156576  00000+0  10074-2 0  9999
2 69469  53.1559 158.9398 0001289 115.3199 244.7955 15.75225143  4674
STARLINK-37686          
1 69470U 26127AD  26189.43396221  .00008041  00000+0  56355-4 0  9990
2 69470  53.1578 156.0739 0001207  87.9287 272.1872 15.75331975  4761
STARLINK-37451          
1 69471U 26127AE  26189.49800861  .00075032  00000+0  37783-3 0  9994
2 69471  53.1581 155.0259 0002099  44.4091 315.7099 15.81018700  4785
DTC TEST OBJECT A       
1 69472U 26128A   26189.43958672  .00006548  00000+0  10865-3 0  9992
2 69472  55.0005 206.9448 0010901 353.6586   6.4309 15.53455200  4539
